NORAD_CAT_ID,OBJECT_NAME,OBJECT_TYPE,EPOCH,MEAN_MOTION,ECCENTRICITY,INCLINATION,RA_OF_ASC_NODE,ARG_OF_PERICENTER,MEAN_ANOMALY,BSTAR,MEAN_MOTION_DOT,MEAN_MOTION_DDOT,TLE_LINE0,TLE_LINE1,TLE_LINE2,SEMIMAJOR_AXIS,PERIOD,APOGEE,PERIGEE,DECAYED
54090.0,STARLINK-5177,PAYLOAD,2024-06-19 14:09:34,15.08832052,0.0001244,53.2175,273.6796,89.9695,270.144,2.8779e-05,1.7e-06,0.0,0 STARLINK-5177,1 54090U 22136AR  24171.58998472  .00000170  00000-0  28779-4 0  9994,2 54090  53.2175 273.6796 0001244  89.9695 270.1440 15.08832052 92632,6917.905,95.438,540.63,538.909,0.0
54090.0,STARLINK-5177,PAYLOAD,2024-06-20 14:00:20,15.08847042,0.0001256,53.2174,269.2196,91.1431,268.9705,8.6147e-05,1.084e-05,0.0,0 STARLINK-5177,1 54090U 22136AR  24172.58357589  .00001084  00000-0  86147-4 0  9991,2 54090  53.2174 269.2196 0001256  91.1431 268.9705 15.08847042 92311,6917.859,95.437,540.593,538.855,0.0
54090.0,STARLINK-5177,PAYLOAD,2024-06-21 12:15:45,15.08836714,0.0001552,53.2187,265.0577,89.0835,271.0335,2.9756e-05,1.86e-06,0.0,0 STARLINK-5177,1 54090U 22136AR  24173.51094546  .00000186  00000-0  29756-4 0  9991,2 54090  53.2187 265.0577 0001552  89.0835 271.0335 15.08836714 92920,6917.89,95.438,540.829,538.682,0.0
54090.0,STARLINK-5177,PAYLOAD,2024-06-21 13:51:08,15.0884001,0.0001337,53.2175,264.7593,83.9081,276.2063,5.8524e-05,6.44e-06,0.0,0 STARLINK-5177,1 54090U 22136AR  24173.57718202  .00000644  00000-0  58524-4 0  9993,2 54090  53.2175 264.7593 0001337  83.9081 276.2063 15.08840010 92466,6917.88,95.438,540.67,538.82,0.0
54090.0,STARLINK-5177,PAYLOAD,2024-06-22 12:06:32,15.08843269,0.0001414,53.2175,260.5962,75.7101,284.4048,-1.0176e-05,-4.5e-06,0.0,0 STARLINK-5177,1 54090U 22136AR  24174.50454264 -.00000450  00000-0 -10176-4 0  9990,2 54090  53.2175 260.5962 0001414  75.7101 284.4048 15.08843269 92607,6917.87,95.437,540.714,538.757,0.0
54090.0,STARLINK-5177,PAYLOAD,2024-06-22 15:17:18,15.08847408,0.0001384,53.2173,260.0007,76.8963,283.2184,1.2825e-05,-8.4e-07,0.0,0 STARLINK-5177,1 54090U 22136AR  24174.63701886 -.00000084  00000-0  12825-4 0  9994,2 54090  53.2173 260.0007 0001384  76.8963 283.2184 15.08847408 93095,6917.858,95.437,540.68,538.765,0.0
54090.0,STARLINK-5177,PAYLOAD,2024-06-23 05:35:47,15.08836829,0.0001397,53.2165,257.3244,72.3191,287.7953,6.6698e-05,7.74e-06,0.0,0 STARLINK-5177,1 54090U 22136AR  24175.23318288  .00000774  00000-0  66698-4 0  9993,2 54090  53.2165 257.3244 0001397  72.3191 287.7953 15.08836829 93184,6917.89,95.438,540.722,538.789,0.0
54090.0,STARLINK-5177,PAYLOAD,2024-06-23 11:57:19,15.08842646,0.0001434,53.2172,256.1348,73.2095,286.9054,6.0537e-05,6.76e-06,0.0,0 STARLINK-5177,1 54090U 22136AR  24175.49813979  .00000676  00000-0  60537-4 0  9995,2 54090  53.2172 256.1348 0001434  73.2095 286.9054 15.08842646 92758,6917.872,95.437,540.729,538.745,0.0
54090.0,STARLINK-5177,PAYLOAD,2024-06-23 15:08:05,15.08845478,0.0001119,53.2165,255.5393,73.6856,286.4259,7.8462e-05,9.61e-06,0.0,0 STARLINK-5177,1 54090U 22136AR  24175.63061635  .00000961  00000-0  78462-4 0  9998,2 54090  53.2165 255.5393 0001119  73.6856 286.4259 15.08845478 93245,6917.864,95.437,540.503,538.955,0.0
54090.0,STARLINK-5177,PAYLOAD,2024-06-24 11:48:05,15.08844333,0.0001446,53.2177,251.6731,102.7528,257.3626,5.9818e-05,6.64e-06,0.0,0 STARLINK-5177,1 54090U 22136AR  24176.49173568  .00000664  00000-0  59818-4 0  9996,2 54090  53.2177 251.6731 0001446 102.7528 257.3626 15.08844333 92900,6917.867,95.437,540.732,538.732,0.0
54090.0,STARLINK-5177,PAYLOAD,2024-06-25 11:38:53,15.08836174,0.0001463,53.2178,247.2124,91.6038,268.5122,-4.2167e-05,-9.59e-06,0.0,0 STARLINK-5177,1 54090U 22136AR  24177.48534534 -.00000959  00000-0 -42167-4 0  9998,2 54090  53.2178 247.2124 0001463  91.6038 268.5122 15.08836174 93527,6917.892,95.438,540.769,538.745,0.0
54090.0,STARLINK-5177,PAYLOAD,2024-06-26 09:54:17,15.08839949,0.0001497,53.2174,243.0512,96.8963,263.22,5.7147e-05,6.22e-06,0.0,0 STARLINK-5177,1 54090U 22136AR  24178.41270024  .00000622  00000-0  57147-4 0  9992,2 54090  53.2174 243.0512 0001497  96.8963 263.2200 15.08839949 93666,6917.881,95.438,540.781,538.71,0.0
54090.0,STARLINK-5177,PAYLOAD,2024-06-26 13:05:03,15.0884213,0.0001505,53.2173,242.4526,95.8568,264.2596,7.6681e-05,9.33e-06,0.0,0 STARLINK-5177,1 54090U 22136AR  24178.54517801  .00000933  00000-0  76681-4 0  9992,2 54090  53.2173 242.4526 0001505  95.8568 264.2596 15.08842130 93219,6917.874,95.437,540.78,538.698,0.0
54090.0,STARLINK-5177,PAYLOAD,2024-06-27 11:20:28,15.08836425,0.0001371,53.216,238.2916,75.4261,284.6883,5.1805e-05,5.37e-06,0.0,0 STARLINK-5177,1 54090U 22136AR  24179.47254703  .00000537  00000-0  51805-4 0  9995,2 54090  53.2160 238.2916 0001371  75.4261 284.6883 15.08836425 93828,6917.891,95.438,540.705,538.808,0.0
54090.0,STARLINK-5177,PAYLOAD,2024-06-28 11:11:20,15.08760644,0.0001544,53.2148,233.8316,118.3947,241.7201,-0.00071661,-0.0001165,0.0,0 STARLINK-5177,1 54090U 22136AR  24180.46621358 -.00011650  00000-0 -71661-3 0  9991,2 54090  53.2148 233.8316 0001544 118.3947 241.7201 15.08760644 93972,6918.123,95.443,541.056,538.92,0.0
54090.0,STARLINK-5177,PAYLOAD,2024-06-28 17:32:46,15.08850849,0.000135,53.2153,232.6416,123.704,236.4081,4.1454e-05,3.72e-06,0.0,0 STARLINK-5177,1 54090U 22136AR  24180.73109627  .00000372  00000-0  41454-4 0  9996,2 54090  53.2153 232.6416 0001350 123.7040 236.4081 15.08850849 94015,6917.847,95.437,540.646,538.778,0.0
54090.0,STARLINK-5177,PAYLOAD,2024-06-29 12:37:24,15.08849445,0.0001493,53.2162,229.0666,82.1612,277.955,0.00011504,1.544e-05,0.0,0 STARLINK-5177,1 54090U 22136AR  24181.52597730  .00001544  00000-0  11504-3 0  9994,2 54090  53.2162 229.0666 0001493  82.1612 277.9550 15.08849445 94137,6917.852,95.437,540.749,538.684,0.0
54090.0,STARLINK-5177,PAYLOAD,2024-06-29 20:34:21,15.08834484,0.00013,53.2154,227.5836,99.462,260.6519,-1.1269e-05,-4.67e-06,0.0,0 STARLINK-5177,1 54090U 22136AR  24181.85718933 -.00000467  00000-0 -11269-4 0  9994,2 54090  53.2154 227.5836 0001300  99.4620 260.6519 15.08834484 93711,6917.897,95.438,540.662,538.863,0.0
54090.0,STARLINK-5177,PAYLOAD,2024-06-30 02:55:53,15.08853002,0.0001736,53.2146,226.3966,115.6002,244.517,-0.00026795,-4.552e-05,0.0,0 STARLINK-5177,1 54090U 22136AR  24182.12215183 -.00004552  00000-0 -26795-3 0  9992,2 54090  53.2146 226.3966 0001736 115.6002 244.5170 15.08853002 94229,6917.841,95.437,540.907,538.505,0.0
54090.0,STARLINK-5177,PAYLOAD,2024-06-30 09:17:27,15.08832481,0.0001196,53.2148,225.2071,121.7835,238.3273,-0.00038136,-6.351e-05,0.0,0 STARLINK-5177,1 54090U 22136AR  24182.38712503 -.00006351  00000-0 -38136-3 0  9999,2 54090  53.2148 225.2071 0001196 121.7835 238.3273 15.08832481 94265,6917.903,95.438,540.596,538.941,0.0
54090.0,STARLINK-5177,PAYLOAD,2024-06-30 20:25:07,15.08851144,0.000173,53.2166,223.1251,119.277,240.8396,-0.00020767,-3.593e-05,0.0,0 STARLINK-5177,1 54090U 22136AR  24182.85078660 -.00003593  00000-0 -20767-3 0  9996,2 54090  53.2166 223.1251 0001730 119.2770 240.8396 15.08851144 94335,6917.846,95.437,540.908,538.515,0.0
54090.0,STARLINK-5177,PAYLOAD,2024-07-01 09:08:12,15.08850884,0.0001356,53.2156,220.7475,89.5568,270.5579,2.466e-05,1.05e-06,0.0,0 STARLINK-5177,1 54090U 22136AR  24183.38070399  .00000105  00000-0  24660-4 0  9997,2 54090  53.2156 220.7475 0001356  89.5568 270.5579 15.08850884 93942,6917.847,95.437,540.65,538.774,0.0
54090.0,STARLINK-5177,PAYLOAD,2024-07-01 21:51:20,15.08782927,0.0001659,53.2153,218.3687,99.6956,260.4224,0.00099209,0.00015512,0.0,0 STARLINK-5177,1 54090U 22136AR  24183.91065085  .00015512  00000-0  99209-3 0  9990,2 54090  53.2153 218.3687 0001659  99.6956 260.4224 15.08782927 94023,6918.055,95.441,541.068,538.772,0.0
54090.0,STARLINK-5177,PAYLOAD,2024-07-02 05:48:14,15.08831163,0.0001405,53.215,216.8819,79.5862,280.5288,0.00016718,2.373e-05,0.0,0 STARLINK-5177,1 54090U 22136AR  24184.24183495  .00002373  00000-0  16718-3 0  9998,2 54090  53.2150 216.8819 0001405  79.5862 280.5288 15.08831163 94549,6917.907,95.438,540.744,538.8,0.0
54090.0,STARLINK-5177,PAYLOAD,2024-07-02 08:59:00,15.08833954,0.0001402,53.215,216.2867,81.8078,278.3073,0.00019414,2.803e-05,0.0,0 STARLINK-5177,1 54090U 22136AR  24184.37431430  .00002803  00000-0  19414-3 0  9991,2 54090  53.2150 216.2867 0001402  81.8078 278.3073 15.08833954 94095,6917.899,95.438,540.734,538.794,0.0
54090.0,STARLINK-5177,PAYLOAD,2024-07-03 08:49:47,15.08837873,0.0001358,53.2149,211.8259,81.0578,279.0567,0.00013042,1.788e-05,0.0,0 STARLINK-5177,1 54090U 22136AR  24185.36791333  .00001788  00000-0  13042-3 0  9994,2 54090  53.2149 211.8259 0001358  81.0578 279.0567 15.08837873 94715,6917.887,95.438,540.691,538.812,0.0
54090.0,STARLINK-5177,PAYLOAD,2024-07-03 18:22:06,15.0883367,0.0001365,53.2147,210.0418,79.3763,280.7383,0.00014517,2.023e-05,0.0,0 STARLINK-5177,1 54090U 22136AR  24185.76535465  .00002023  00000-0  14517-3 0  9991,2 54090  53.2147 210.0418 0001365  79.3763 280.7383 15.08833670 94306,6917.9,95.438,540.709,538.82,0.0
54090.0,STARLINK-5177,PAYLOAD,2024-07-04 08:40:34,15.08836717,0.0001372,53.2157,207.3668,82.073,278.0418,6.1943e-05,6.98e-06,0.0,0 STARLINK-5177,1 54090U 22136AR  24186.36151422  .00000698  00000-0  61943-4 0  9997,2 54090  53.2157 207.3668 0001372  82.0730 278.0418 15.08836717 94399,6917.89,95.438,540.705,538.806,0.0
54090.0,STARLINK-5177,PAYLOAD,2024-07-04 18:12:53,15.08838378,0.0001383,53.216,205.5825,80.8776,279.2373,5.7465e-05,6.27e-06,0.0,0 STARLINK-5177,1 54090U 22136AR  24186.75895345  .00000627  00000-0  57465-4 0  9995,2 54090  53.2160 205.5825 0001383  80.8776 279.2373 15.08838378 94923,6917.885,95.438,540.707,538.794,0.0
54090.0,STARLINK-5177,PAYLOAD,2024-07-05 10:06:44,15.08842145,0.0001386,53.2161,202.6091,84.2273,275.8877,7.1083e-05,8.44e-06,0.0,0 STARLINK-5177,1 54090U 22136AR  24187.42135101  .00000844  00000-0  71083-4 0  9990,2 54090  53.2161 202.6091 0001386  84.2273 275.8877 15.08842145 94557,6917.874,95.437,540.698,538.78,0.0
